start=new Date('%Y-%m-57T00:00:00.000Z').valueOf();
sats=[{"REV_AT_EPOCH":"5851","ELEMENT_SET_NO":"999","NORAD_CAT_ID":"46044","INCLINATION":"53.0556","MEAN_MOTION_DOT":"-0.00000828","RCS_SIZE":"LARGE","OBJECT_NAME":"STARLINK-1584","BSTAR":"-0.00003668600000","MEAN_ELEMENT_THEORY":"SGP4","ARG_OF_PERICENTER":"101.9650","LAUNCH_DATE":"2020-08-07","DECAY_DATE":null,"OBJECT_TYPE":"PAYLOAD","SITE":"AFETR","MEAN_MOTION_DDOT":"0.0000000000000","COUNTRY_CODE":"US","EPOCH":"2021-08-21T12:18:37.210752","TLE_LINE1":"1 46044U 20055T   21233.51293068 -.00000828  00000-0 -36686-4 0  9998","FILE":"3100831","APOAPSIS":"548.307","OBJECT_ID":"2020-055T","PERIAPSIS":"546.144","MEAN_ANOMALY":"258.1514","EPHEMERIS_TYPE":"0","TLE_LINE2":"2 46044  53.0556  23.9336 0001562 101.9650 258.1514 15.06396085 58514","RA_OF_ASC_NODE":"23.9336","PERIOD":"95.592","SEMIMAJOR_AXIS":"6925.361","REF_FRAME":"TEME","ECCENTRICITY":"0.00015620","CENTER_NAME":"EARTH","MEAN_MOTION":"15.06396085","TIME_SYSTEM":"UTC","CLASSIFICATION_TYPE":"U","GP_ID":"183185366"},{"PERIOD":"95.592","RA_OF_ASC_NODE":"24.4892","REF_FRAME":"TEME","SEMIMAJOR_AXIS":"6925.353","CLASSIFICATION_TYPE":"U","MEAN_MOTION":"15.06398592","TIME_SYSTEM":"UTC","CENTER_NAME":"EARTH","ECCENTRICITY":"0.00015190","GP_ID":"183184114","MEAN_MOTION_DDOT":"0.0000000000000","OBJECT_TYPE":"PAYLOAD","SITE":"AFETR","TLE_LINE1":"1 46045U 20055U   21233.39128979  .00001269  00000-0  10411-3 0  9998","EPOCH":"2021-08-21T09:23:27.437856","COUNTRY_CODE":"US","PERIAPSIS":"546.166","OBJECT_ID":"2020-055U","FILE":"3100831","APOAPSIS":"548.270","TLE_LINE2":"2 46045  53.0551  24.4892 0001519 116.3522 243.7623 15.06398592 58474","EPHEMERIS_TYPE":"0","MEAN_ANOMALY":"243.7623","MEAN_ELEMENT_THEORY":"SGP4","OBJECT_NAME":"STARLINK-1591","BSTAR":"0.00010411000000","ARG_OF_PERICENTER":"116.3522","LAUNCH_DATE":"2020-08-07","DECAY_DATE":null,"REV_AT_EPOCH":"5847","INCLINATION":"53.0551","NORAD_CAT_ID":"46045","ELEMENT_SET_NO":"999","MEAN_MOTION_DOT":"0.00001269","RCS_SIZE":"LARGE"},{"ARG_OF_PERICENTER":"101.6390","MEAN_ELEMENT_THEORY":"SGP4","BSTAR":"-0.00002694900000","OBJECT_NAME":"STARLINK-1514","DECAY_DATE":null,"LAUNCH_DATE":"2020-08-07","REV_AT_EPOCH":"5862","RCS_SIZE":"LARGE","MEAN_MOTION_DOT":"-0.00000683","INCLINATION":"53.0570","NORAD_CAT_ID":"46046","ELEMENT_SET_NO":"999","REF_FRAME":"TEME","SEMIMAJOR_AXIS":"6925.350","RA_OF_ASC_NODE":"13.8560","PERIOD":"95.592","GP_ID":"183183865","CLASSIFICATION_TYPE":"U","MEAN_MOTION":"15.06399386","TIME_SYSTEM":"UTC","CENTER_NAME":"EARTH","ECCENTRICITY":"0.00014740","EPOCH":"2021-08-21T12:46:28.909056","TLE_LINE1":"1 46046U 20055V   21233.53227904 -.00000683  00000-0 -26949-4 0  9998","COUNTRY_CODE":"US","MEAN_MOTION_DDOT":"0.0000000000000","SITE":"AFETR","OBJECT_TYPE":"PAYLOAD","TLE_LINE2":"2 46046  53.0570  13.8560 0001474 101.6390 258.4764 15.06399386 58628","EPHEMERIS_TYPE":"0","MEAN_ANOMALY":"258.4764","PERIAPSIS":"546.195","OBJECT_ID":"2020-055V","FILE":"3100831","APOAPSIS":"548.236"},{"MEAN_MOTION":"15.06396609","TIME_SYSTEM":"UTC","CENTER_NAME":"EARTH","ECCENTRICITY":"0.00013530","CLASSIFICATION_TYPE":"U","GP_ID":"183185116","RA_OF_ASC_NODE":"13.8025","PERIOD":"95.592","REF_FRAME":"TEME","SEMIMAJOR_AXIS":"6925.359","OBJECT_ID":"2020-055W","FILE":"3100831","APOAPSIS":"548.161","PERIAPSIS":"546.287","MEAN_ANOMALY":"254.4175","TLE_LINE2":"2 46047  53.0564  13.8025 0001353 105.6963 254.4175 15.06396609 58654","EPHEMERIS_TYPE":"0","OBJECT_TYPE":"PAYLOAD","SITE":"AFETR","MEAN_MOTION_DDOT":"0.0000000000000","COUNTRY_CODE":"US","EPOCH":"2021-08-21T13:02:24.436032","TLE_LINE1":"1 46047U 20055W   21233.54333838 -.00000941  00000-0 -44280-4 0  9999","LAUNCH_DATE":"2020-08-07","DECAY_DATE":null,"BSTAR":"-0.00004428000000","OBJECT_NAME":"STARLINK-1524","MEAN_ELEMENT_THEORY":"SGP4","ARG_OF_PERICENTER":"105.6963","ELEMENT_SET_NO":"999","INCLINATION":"53.0564","NORAD_CAT_ID":"46047","RCS_SIZE":"LARGE","MEAN_MOTION_DOT":"-0.00000941","REV_AT_EPOCH":"5865"},{"MEAN_MOTION_DDOT":"0.0000000000000","SITE":"AFETR","OBJECT_TYPE":"PAYLOAD","EPOCH":"2021-08-21T12:57:05.962176","TLE_LINE1":"1 46048U 20055X   21233.53965234 -.00000278  00000-0  24088-6 0  9998","COUNTRY_CODE":"US","PERIAPSIS":"546.277","FILE":"3100831","APOAPSIS":"548.170","OBJECT_ID":"2020-055X","EPHEMERIS_TYPE":"0","TLE_LINE2":"2 46048  53.0566  13.8225 0001367 104.9310 255.1830 15.06396712 58631","MEAN_ANOMALY":"255.1830","PERIOD":"95.592","RA_OF_ASC_NODE":"13.8225","SEMIMAJOR_AXIS":"6925.359","REF_FRAME":"TEME","CLASSIFICATION_TYPE":"U","CENTER_NAME":"EARTH","ECCENTRICITY":"0.00013670","MEAN_MOTION":"15.06396712","TIME_SYSTEM":"UTC","GP_ID":"183184867","REV_AT_EPOCH":"5863","NORAD_CAT_ID":"46048","INCLINATION":"53.0566","ELEMENT_SET_NO":"999","MEAN_MOTION_DOT":"-0.00000278","RCS_SIZE":"LARGE","MEAN_ELEMENT_THEORY":"SGP4","OBJECT_NAME":"STARLINK-1527","BSTAR":"0.00000024088000","ARG_OF_PERICENTER":"104.9310","LAUNCH_DATE":"2020-08-07","DECAY_DATE":null},{"SEMIMAJOR_AXIS":"6925.330","REF_FRAME":"TEME","PERIOD":"95.592","RA_OF_ASC_NODE":"13.8364","GP_ID":"183183615","CENTER_NAME":"EARTH","ECCENTRICITY":"0.00014230","MEAN_MOTION":"15.06406052","TIME_SYSTEM":"UTC","CLASSIFICATION_TYPE":"U","COUNTRY_CODE":"US","TLE_LINE1":"1 46049U 20055Y   21233.53595598  .00000976  00000-0  84384-4 0  9998","EPOCH":"2021-08-21T12:51:46.596672","SITE":"AFETR","OBJECT_TYPE":"PAYLOAD","MEAN_MOTION_DDOT":"0.0000000000000","MEAN_ANOMALY":"256.9560","EPHEMERIS_TYPE":"0","TLE_LINE2":"2 46049  53.0557  13.8364 0001423 103.1588 256.9560 15.06406052 58668","FILE":"3100831","APOAPSIS":"548.180","OBJECT_ID":"2020-055Y","PERIAPSIS":"546.210","ARG_OF_PERICENTER":"103.1588","OBJECT_NAME":"STARLINK-1530","BSTAR":"0.00008438400000","MEAN_ELEMENT_THEORY":"SGP4","DECAY_DATE":null,"LAUNCH_DATE":"2020-08-07","REV_AT_EPOCH":"5866","RCS_SIZE":"LARGE","MEAN_MOTION_DOT":"0.00000976","ELEMENT_SET_NO":"999","NORAD_CAT_ID":"46049","INCLINATION":"53.0557"},{"MEAN_ELEMENT_THEORY":"SGP4","BSTAR":"-0.00000660270000","OBJECT_NAME":"STARLINK-1535","ARG_OF_PERICENTER":"112.4884","LAUNCH_DATE":"2020-08-07","DECAY_DATE":null,"REV_AT_EPOCH":"5865","NORAD_CAT_ID":"46050","INCLINATION":"53.0579","ELEMENT_SET_NO":"999","RCS_SIZE":"LARGE","MEAN_MOTION_DOT":"-0.00000380","RA_OF_ASC_NODE":"13.9866","PERIOD":"95.593","SEMIMAJOR_AXIS":"6925.373","REF_FRAME":"TEME","CLASSIFICATION_TYPE":"U","CENTER_NAME":"EARTH","ECCENTRICITY":"0.00013000","MEAN_MOTION":"15.06391960","TIME_SYSTEM":"UTC","GP_ID":"183184365","MEAN_MOTION_DDOT":"0.0000000000000","OBJECT_TYPE":"PAYLOAD","SITE":"AFETR","TLE_LINE1":"1 46050U 20055Z   21233.49910813 -.00000380  00000-0 -66027-5 0  9992","EPOCH":"2021-08-21T11:58:42.942432","COUNTRY_CODE":"US","PERIAPSIS":"546.338","FILE":"3100831","APOAPSIS":"548.138","OBJECT_ID":"2020-055Z","EPHEMERIS_TYPE":"0","TLE_LINE2":"2 46050  53.0579  13.9866 0001300 112.4884 247.6243 15.06391960 58653","MEAN_ANOMALY":"247.6243"},{"FILE":"3100831","APOAPSIS":"548.185","OBJECT_ID":"2020-055AA","PERIAPSIS":"546.232","MEAN_ANOMALY":"258.4272","EPHEMERIS_TYPE":"0","TLE_LINE2":"2 46051  53.0552  13.9734 0001410 101.6875 258.4272 15.06401674 58668","SITE":"AFETR","OBJECT_TYPE":"PAYLOAD","MEAN_MOTION_DDOT":"0.0000000000000","COUNTRY_CODE":"US","TLE_LINE1":"1 46051U 20055AA  21233.50647096  .00000962  00000-0  83495-4 0  9996","EPOCH":"2021-08-21T12:09:19.090944","CENTER_NAME":"EARTH","ECCENTRICITY":"0.00014100","MEAN_MOTION":"15.06401674","TIME_SYSTEM":"UTC","CLASSIFICATION_TYPE":"U","GP_ID":"183184617","PERIOD":"95.592","RA_OF_ASC_NODE":"13.9734","SEMIMAJOR_AXIS":"6925.343","REF_FRAME":"TEME","ELEMENT_SET_NO":"999","NORAD_CAT_ID":"46051","INCLINATION":"53.0552","RCS_SIZE":"LARGE","MEAN_MOTION_DOT":"0.00000962","REV_AT_EPOCH":"5866","LAUNCH_DATE":"2020-08-07","DECAY_DATE":null,"BSTAR":"0.00008349500000","OBJECT_NAME":"STARLINK-1540","MEAN_ELEMENT_THEORY":"SGP4","ARG_OF_PERICENTER":"101.6875"},{"OBJECT_ID":"2020-055AB","FILE":"3100831","APOAPSIS":"548.398","PERIAPSIS":"546.027","MEAN_ANOMALY":"250.1263","TLE_LINE2":"2 46052  53.0549  13.7425 0001712 109.9910 250.1263 15.06400238 58637","EPHEMERIS_TYPE":"0","SITE":"AFETR","OBJECT_TYPE":"PAYLOAD","MEAN_MOTION_DDOT":"0.0000000000000","COUNTRY_CODE":"US","TLE_LINE1":"1 46052U 20055AB  21233.55808389 -.00000431  00000-0 -10004-4 0  9995","EPOCH":"2021-08-21T13:23:38.448096","MEAN_MOTION":"15.06400238","TIME_SYSTEM":"UTC","ECCENTRICITY":"0.00017120","CENTER_NAME":"EARTH","CLASSIFICATION_TYPE":"U","GP_ID":"183185367","RA_OF_ASC_NODE":"13.7425","PERIOD":"95.592","REF_FRAME":"TEME","SEMIMAJOR_AXIS":"6925.348","ELEMENT_SET_NO":"999","INCLINATION":"53.0549","NORAD_CAT_ID":"46052","RCS_SIZE":"LARGE","MEAN_MOTION_DOT":"-0.00000431","REV_AT_EPOCH":"5863","LAUNCH_DATE":"2020-08-07","DECAY_DATE":null,"BSTAR":"-0.00001000400000","OBJECT_NAME":"STARLINK-1541","MEAN_ELEMENT_THEORY":"SGP4","ARG_OF_PERICENTER":"109.9910"},{"COUNTRY_CODE":"US","TLE_LINE1":"1 46053U 20055AC  21233.49541915  .00001142  00000-0  95564-4 0  9990","EPOCH":"2021-08-21T11:53:24.214560","SITE":"AFETR","OBJECT_TYPE":"PAYLOAD","MEAN_MOTION_DDOT":"0.0000000000000","MEAN_ANOMALY":"254.1204","EPHEMERIS_TYPE":"0","TLE_LINE2":"2 46053  53.0566  14.0233 0001582 105.9959 254.1204 15.06400484 58656","FILE":"3100831","APOAPSIS":"548.308","OBJECT_ID":"2020-055AC","PERIAPSIS":"546.116","SEMIMAJOR_AXIS":"6925.347","REF_FRAME":"TEME","RA_OF_ASC_NODE":"14.0233","PERIOD":"95.592","GP_ID":"183184115","CENTER_NAME":"EARTH","ECCENTRICITY":"0.00015820","MEAN_MOTION":"15.06400484","TIME_SYSTEM":"UTC","CLASSIFICATION_TYPE":"U","REV_AT_EPOCH":"5865","MEAN_MOTION_DOT":"0.00001142","RCS_SIZE":"LARGE","ELEMENT_SET_NO":"999","NORAD_CAT_ID":"46053","INCLINATION":"53.0566","ARG_OF_PERICENTER":"105.9959","OBJECT_NAME":"STARLINK-1543","BSTAR":"0.00009556400000","MEAN_ELEMENT_THEORY":"SGP4","DECAY_DATE":null,"LAUNCH_DATE":"2020-08-07"}];
